[
  {
    "input": "123 1/2 Main Street, Anytown, CA 90210",
    "expected": {
      "number": "123 1/2",
      "street": "Main",
      "type": "St",
      "city": "Anytown",
      "state": "CA",
      "zip": "90210"
    },
    "description": "Fractional address number"
  },
  {
    "input": "PO Box 12345, Rural Route 1, Smalltown, MT 59718",
    "expected": null,
    "description": "PO Box with Rural Route"
  },
  {
    "input": "123 N. E. Main St., Apt. 4B, Big City, TX 75201-1234",
    "expected": {
      "number": "123",
      "street": "N. E. Main St.",
      "city": "Big City",
      "state": "TX",
      "zip": "75201",
      "zipext": "1234"
    },
    "description": "Apartment with extended ZIP and periods in directionals"
  },
  {
    "input": "123 South Southwest Boulevard, Unit #456, Phoenix, AZ 85001",
    "expected": {
      "number": "123",
      "prefix": "S",
      "street": "Southwest",
      "type": "Blvd",
      "city": "Phoenix",
      "state": "AZ",
      "zip": "85001"
    },
    "description": "Multiple directionals and unit with hash symbol"
  },
  {
    "input": "Rural Route 5 Box 123A, Farmville, IA 52556",
    "expected": {
      "street": "Rural Route 5 Box 123A",
      "city": "Farmville",
      "state": "IA",
      "zip": "52556"
    },
    "description": "Rural route with box number"
  },
  {
    "input": "123 Old Highway 66, Mile Marker 85, Flagstaff, AZ 86001",
    "expected": {
      "number": "123",
      "street": "Old Highway 66",
      "city": "Flagstaff",
      "state": "AZ",
      "zip": "86001"
    },
    "description": "Highway address with mile marker"
  },
  {
    "input": "45-67 Queens Boulevard, Floor 12, Elmhurst, NY 11373",
    "expected": {
      "number": "45-67",
      "street": "Queens",
      "type": "Blvd",
      "city": "Elmhurst",
      "state": "NY",
      "zip": "11373"
    },
    "description": "Hyphenated house number with floor designation"
  },
  {
    "input": "123 Saint Mary's Church Road, Penthouse A, Boston, MA 02101",
    "expected": {
      "number": "123",
      "street": "Saint Mary's Church",
      "type": "Rd",
      "city": "Boston",
      "state": "MA",
      "zip": "02101"
    },
    "description": "Apostrophe in street name with penthouse"
  },
  {
    "input": "2nd & Pine, Seattle, WA 98101",
    "expected": {
      "city": "Seattle",
      "state": "WA",
      "zip": "98101",
      "street1": "2nd",
      "type1": "",
      "street2": "Pine",
      "type2": ""
    },
    "description": "Street intersection with ampersand"
  },
  {
    "input": "123 Dr. Martin Luther King Jr. Boulevard, Suite 500, Atlanta, GA 30309",
    "expected": {
      "number": "123",
      "street": "Dr. Martin Luther King Jr.",
      "type": "Blvd",
      "city": "Atlanta",
      "state": "GA",
      "zip": "30309"
    },
    "description": "Very long street name with title and suffix abbreviation"
  },
  {
    "input": "456 I-95 Service Road North, Trailer 78, Jacksonville, FL 32202",
    "expected": {
      "number": "456",
      "suffix": "N",
      "street": "I-95 Service",
      "type": "Rd",
      "city": "Jacksonville",
      "state": "FL",
      "zip": "32202"
    },
    "description": "Interstate service road with trailer designation"
  },
  {
    "input": "123 1st Street North West, Department 45, Bismarck, ND 58501",
    "expected": {
      "number": "123",
      "suffix": "W",
      "street": "1st Street North",
      "city": "Bismarck",
      "state": "ND",
      "zip": "58501"
    },
    "description": "Ordinal street with spelled-out directional and department"
  },
  {
    "input": "HC 73 Box 9876, Moab, UT 84532",
    "expected": {
      "street": "HC 73 Box 9876",
      "city": "Moab",
      "state": "UT",
      "zip": "84532"
    },
    "description": "Highway Contract route address"
  },
  {
    "input": "123 Avenue of the Americas, Mezzanine Level, New York, NY 10036",
    "expected": {
      "number": "123",
      "type": "Ave",
      "street": "of the Americas",
      "city": "New York",
      "state": "NY",
      "zip": "10036"
    },
    "description": "Famous NYC avenue with mezzanine level"
  },
  {
    "input": "789 County Road 250 East, Space 12, Mobile Home Park, Terre Haute, IN 47802",
    "expected": {
      "number": "789",
      "suffix": "E",
      "street": "County Road 250",
      "city": "Terre Haute",
      "state": "IN",
      "zip": "47802",
      "facility": "Mobile Home Park"
    },
    "description": "County road with space designation in mobile home park"
  },
  {
    "input": "123 State Highway 1A, Hangar B-7, Anchorage, AK 99501",
    "expected": {
      "number": "123",
      "street": "State Highway 1A",
      "city": "Anchorage",
      "state": "AK",
      "zip": "99501"
    },
    "description": "State highway with hangar designation"
  },
  {
    "input": "456 Business Route 80, Lower Level, Reno, NV 89501",
    "expected": {
      "number": "456",
      "street": "Business Route 80",
      "city": "Reno",
      "state": "NV",
      "zip": "89501"
    },
    "description": "Business route with level designation"
  },
  {
    "input": "General Delivery, Smallville, KS 67524",
    "expected": {
      "street": "General Delivery",
      "city": "Smallville",
      "state": "KS",
      "zip": "67524"
    },
    "description": "General delivery address"
  },
  {
    "input": "123 US Highway 101 Frontage Road, Slip C-22, Marina, CA 93933",
    "expected": {
      "number": "123",
      "street": "US Highway 101 Frontage",
      "type": "Rd",
      "city": "Marina",
      "state": "CA",
      "zip": "93933"
    },
    "description": "US Highway frontage road with marina slip"
  },
  {
    "input": "789 Three Mile Island Road, Reactor Building 2, Middletown, PA 17057",
    "expected": {
      "number": "789",
      "street": "Three Mile Island",
      "type": "Rd",
      "city": "Middletown",
      "state": "PA",
      "zip": "17057",
      "facility": "Reactor Building 2"
    },
    "description": "Written-out number in street name with building"
  },
  {
    "input": "123 Fort Belvoir Access Road, Gate 5, Alexandria, VA 22060",
    "expected": {
      "number": "123",
      "street": "Fort Belvoir Access",
      "type": "Rd",
      "city": "Alexandria",
      "state": "VA",
      "zip": "22060"
    },
    "description": "Military base access road with gate"
  },
  {
    "input": "456 Old Spanish Trail, Kilometer 15, Santa Fe, NM 87501",
    "expected": {
      "number": "456",
      "street": "Old Spanish",
      "type": "Trl",
      "city": "Santa Fe",
      "state": "NM",
      "zip": "87501"
    },
    "description": "Trail address with kilometer marker"
  },
  {
    "input": "123 MLK Boulevard, Tower 3, Unit 45A, Chicago, IL 60601",
    "expected": {
      "number": "123",
      "street": "MLK",
      "type": "Blvd",
      "city": "Chicago",
      "state": "IL",
      "zip": "60601",
      "facility": "Tower 3"
    },
    "description": "Abbreviated famous name with tower and unit"
  },
  {
    "input": "789 NASA Parkway, Mission Control Center, Houston, TX 77058",
    "expected": {
      "number": "789",
      "street": "NASA",
      "type": "Pkwy",
      "city": "Houston",
      "state": "TX",
      "zip": "77058",
      "facility": "Mission Control Center"
    },
    "description": "Federal facility with mission control center"
  }
]