{
  "$schema": "../../schemas/test-file.json",
  "name": "US Unusual Address Types",
  "description": "Unusual US address types and formats for comprehensive parsing validation",
  "unusual_street_types": [
    {
      "input": "10144 Potters Hatch Cmn Cupertino CA 95014",
      "expected": {
        "number": "10144",
        "street": "Potters Hatch",
        "type": "Cmn",
        "city": "Cupertino",
        "state": "CA",
        "zip": "95014"
      },
      "description": "Common abbreviated as Cmn"
    },
    {
      "input": "10144 Potters Hatch Common Cupertino CA 95014",
      "expected": {
        "number": "10144",
        "street": "Potters Hatch",
        "type": "Cmn",
        "city": "Cupertino",
        "state": "CA",
        "zip": "95014"
      },
      "description": "Full word Common normalized to Cmn"
    },
    {
      "input": "36 Hathway Commons Lebanon OH 45036",
      "expected": {
        "number": "36",
        "street": "Hathway",
        "type": "Cmns",
        "city": "Lebanon",
        "state": "OH",
        "zip": "45036"
      },
      "description": "Commons (plural) normalized to Cmns"
    },
    {
      "input": "36 Hathway Cmns Lebanon OH 45036",
      "expected": {
        "number": "36",
        "street": "Hathway",
        "type": "Cmns",
        "city": "Lebanon",
        "state": "OH",
        "zip": "45036"
      },
      "description": "Commons abbreviated as Cmns"
    },
    {
      "input": "174 Sunset Crossroad Deer Isle ME 04627",
      "expected": {
        "number": "174",
        "street": "Sunset",
        "type": "Xrd",
        "city": "Deer Isle",
        "state": "ME",
        "zip": "04627"
      },
      "description": "Crossroad normalized to Xrd"
    },
    {
      "input": "174 Sunset Xrd Deer Isle ME 04627",
      "expected": {
        "number": "174",
        "street": "Sunset",
        "type": "Xrd",
        "city": "Deer Isle",
        "state": "ME",
        "zip": "04627"
      },
      "description": "Crossroad already abbreviated as Xrd"
    },
    {
      "input": "905 Laing Crossroads Dawson GA 39842",
      "expected": {
        "number": "905",
        "street": "Laing",
        "type": "Xrds",
        "city": "Dawson",
        "state": "GA",
        "zip": "39842"
      }
    },
    {
      "input": "905 Laing Xrds Dawson GA 39842",
      "expected": {
        "number": "905",
        "street": "Laing",
        "type": "Xrds",
        "city": "Dawson",
        "state": "GA",
        "zip": "39842"
      }
    },
    {
      "input": "9402 Sequoia Fall San Antonio TX 78251",
      "expected": {
        "number": "9402",
        "street": "Sequoia",
        "type": "Fall",
        "city": "San Antonio",
        "state": "TX",
        "zip": "78251"
      }
    },
    {
      "input": "24411 Alamosa Fls San Antonio TX 78255",
      "expected": {
        "number": "24411",
        "street": "Alamosa",
        "type": "Fls",
        "city": "San Antonio",
        "state": "TX",
        "zip": "78255"
      }
    },
    {
      "input": "24411 Alamosa Falls San Antonio TX 78255",
      "expected": {
        "number": "24411",
        "street": "Alamosa",
        "type": "Fls",
        "city": "San Antonio",
        "state": "TX",
        "zip": "78255"
      }
    },
    {
      "input": "15235 Spring Land San Antonio TX 78247",
      "expected": {
        "number": "15235",
        "street": "Spring",
        "type": "Land",
        "city": "San Antonio",
        "state": "TX",
        "zip": "78247"
      }
    },
    {
      "input": "2146 University Square Mall Tampa FL 33612",
      "expected": {
        "number": "2146",
        "street": "University Square",
        "type": "Mall",
        "city": "Tampa",
        "state": "FL",
        "zip": "33612"
      }
    },
    {
      "input": "415 Van Wyck Mews Norfolk VA 23517",
      "expected": {
        "number": "415",
        "street": "Van Wyck",
        "type": "Mews",
        "city": "Norfolk",
        "state": "VA",
        "zip": "23517"
      }
    },
    {
      "input": "22 Cumbres Pass Santa Fe New Mexico 87508",
      "expected": {
        "number": "22",
        "street": "Cumbres",
        "type": "Pass",
        "city": "Santa Fe",
        "state": "NM",
        "zip": "87508"
      }
    },
    {
      "input": "6 Maison Rue Hattiesburg MS 39402",
      "expected": {
        "number": "6",
        "street": "Maison",
        "type": "Rue",
        "city": "Hattiesburg",
        "state": "MS",
        "zip": "39402"
      }
    },
    {
      "input": "12921 Coyote Run Fishers IN 46038",
      "expected": {
        "number": "12921",
        "street": "Coyote",
        "type": "Run",
        "city": "Fishers",
        "state": "IN",
        "zip": "46038"
      }
    },
    {
      "input": "2974 London Wall Bloomfield Hills MI 48304",
      "expected": {
        "number": "2974",
        "street": "London",
        "type": "Wall",
        "city": "Bloomfield Hills",
        "state": "MI",
        "zip": "48304"
      }
    }
  ]
}
